ONEWEB-0534             
1 55797U 23029B   26200.19900813  .00000081  00000+0  16770-3 0  9992
2 55797  87.9175 268.0883 0002053 100.6135 259.5230 13.20769862165375
ONEWEB-0556             
1 55798U 23029C   26200.20575628  .00000192  00000+0  44141-3 0  9993
2 55798  87.9171 268.0854 0001412 117.1420 242.9858 13.20771080165375
ONEWEB-0562             
1 55799U 23029D   26200.41955266  .00000081  00000+0  16778-3 0  9999
2 55799  87.9169 268.0240 0001246  88.7005 271.4272 13.20772876165404
ONEWEB-0563             
1 55800U 23029E   26200.49026093  .00000056  00000+0  10620-3 0  9999
2 55800  87.9173 268.0400 0002135 103.4512 256.6859 13.20770926165406
ONEWEB-0564             
1 55801U 23029F   26200.48353000  .00000040  00000+0  67558-4 0  9996
2 55801  87.9173 268.0154 0001682  92.5696 267.5630 13.20773092165416
ONEWEB-0638             
1 55802U 23029G   26200.28641861  .00000132  00000+0  32242-3 0  9993
2 55802  87.8952 283.3535 0001489 106.9416 253.1877 13.14504799163612
ONEWEB-0639             
1 55803U 23029H   26200.55730556 -.00000147  00000+0 -40031-3 0  9997
2 55803  87.9185 298.5303 0002747 116.1957 243.9459 13.19724719163179
ONEWEB-0640             
1 55804U 23029J   26200.29594173  .00000309  00000+0  79971-3 0  9995
2 55804  87.8953 283.3425 0001682 119.3468 240.7830 13.14502295163635
ONEWEB-0641             
1 55805U 23029K   26200.32514633  .00006789  00000+0  16920-1 0  9994
2 55805  87.9197 298.5684 0002009 104.4759 255.6597 13.19693967163158
ONEWEB-0642             
1 55806U 23029L   26200.32039316  .00000029  00000+0  39827-4 0  9990
2 55806  87.9186 298.5787 0002769 110.3476 249.7955 13.19726128163143
ONEWEB-0643             
1 55807U 23029M   26200.26581319 -.00000123  00000+0 -36635-3 0  9999
2 55807  87.8952 283.3354 0002697 103.8213 256.3217 13.14502296163601
ONEWEB-0644             
1 55808U 23029N   26200.54310794  .00000085  00000+0  17891-3 0  9996
2 55808  87.9182 298.5352 0002359 104.9353 255.2041 13.19725996163170
ONEWEB-0645             
1 55809U 23029P   26200.26195129 -.00000004  00000+0 -43136-4 0  9994
2 55809  87.9182 298.5885 0002081 112.3289 247.8065 13.19726357163136
ONEWEB-0646             
1 55810U 23029Q   26200.50676493 -.00000074  00000+0 -21712-3 0  9993
2 55810  87.9183 298.5394 0002264 104.4046 255.7338 13.19726223163155
ONEWEB-0648             
1 55811U 23029R   26200.23409097  .00000226  00000+0  57613-3 0  9994
2 55811  87.8967 283.3189 0002523 120.1707 239.9673 13.14503770163607
ONEWEB-0649             
1 55812U 23029S   26200.53203486 -.00000083  00000+0 -23915-3 0  9993
2 55812  87.9184 298.5325 0002123 107.5235 252.6130 13.19725323163190
ONEWEB-0650             
1 55813U 23029T   26200.52730238 -.00000054  00000+0 -16632-3 0  9999
2 55813  87.9183 298.5360 0002559 109.0581 251.0829 13.19725060163166
ONEWEB-0652             
1 55814U 23029U   26200.51953698  .00000185  00000+0  46531-3 0  9990
2 55814  87.8964 283.2686 0001958  94.8042 265.3311 13.14502953163613
ONEWEB-0653             
1 55815U 23029V   26200.50367478 -.00000025  00000+0 -10205-3 0  9999
2 55815  87.8964 283.2701 0001949  99.9208 260.2142 13.14502717163649
ONEWEB-0654             
1 55816U 23029W   26200.49891548 -.00000112  00000+0 -33704-3 0  9994
2 55816  87.8963 283.2669 0001770  92.1390 267.9942 13.14502648163668
ONEWEB-0656             
1 55817U 23029X   26200.47679629 -.00000066  00000+0 -19489-3 0  9999
2 55817  87.9186 267.9965 0001774  87.6352 272.4985 13.20769932165417
ONEWEB-0657             
1 55818U 23029Y   26200.52258657  .00000070  00000+0  14243-3 0  9996
2 55818  87.9183 298.5352 0002066  78.1970 281.9395 13.19727672163175
ONEWEB-0658             
1 55819U 23029Z   26200.29038350  .00000125  00000+0  28095-3 0  9998
2 55819  87.9194 298.5600 0002403 105.6663 254.4735 13.19726841163152
ONEWEB-0660             
1 55820U 23029AA  26200.47671559 -.00000111  00000+0 -33283-3 0  9996
2 55820  87.8974 283.2670 0002000 109.7561 250.3785 13.14502635163644
ONEWEB-0661             
1 55821U 23029AB  26200.51160869  .00000239  00000+0  61053-3 0  9994
2 55821  87.8953 283.3000 0001843 107.4538 252.6794 13.14503889163639
ONEWEB-0662             
1 55822U 23029AC  26200.62261749  .00000066  00000+0  14429-3 0  9999
2 55822  87.8960 283.2836 0001955 108.1090 252.0253 13.14502360163692
ONEWEB-0663             
1 55823U 23029AD  26200.43233054 -.00000030  00000+0 -10473-3 0  9995
2 55823  87.9187 268.0763 0002219 108.9189 251.2185 13.20871247165402
ONEWEB-0664             
1 55824U 23029AE  26200.61484959  .00000042  00000+0  71577-4 0  9992
2 55824  87.9168 268.0172 0001620 105.6171 254.5141 13.20772419165427
ONEWEB-0665             
1 55825U 23029AF  26200.50843955  .00000075  00000+0  16802-3 0  9991
2 55825  87.8953 283.2812 0002088 108.7199 251.4158 13.14503197163657
ONEWEB-0666             
1 55826U 23029AG  26200.22931242 -.00000117  00000+0 -31887-3 0  9997
2 55826  87.9170 268.0844 0002394  81.8656 278.2749 13.20770821165387
