OBJECT_NAME,OBJECT_ID,EPOCH,MEAN_MOTION,ECCENTRICITY,INCLINATION,RA_OF_ASC_NODE,ARG_OF_PERICENTER,MEAN_ANOMALY,EPHEMERIS_TYPE,CLASSIFICATION_TYPE,NORAD_CAT_ID,ELEMENT_SET_NO,REV_AT_EPOCH,BSTAR,MEAN_MOTION_DOT,MEAN_MOTION_DDOT
ONEWEB-0534,2023-029B,2026-07-19T04:46:34.302432,13.20769862,.00020531,87.9175,268.0883,100.6135,259.5230,0,U,55797,999,16537,.16769559E-3,.81E-6,0
ONEWEB-0556,2023-029C,2026-07-19T04:56:17.342592,13.20771080,.00014126,87.9171,268.0854,117.1420,242.9858,0,U,55798,999,16537,.44140749E-3,.192E-5,0
ONEWEB-0562,2023-029D,2026-07-19T10:04:09.349824,13.20772876,.0001246,87.9169,268.0240,88.7005,271.4272,0,U,55799,999,16540,.16777503E-3,.81E-6,0
ONEWEB-0563,2023-029E,2026-07-19T11:45:58.544352,13.20770926,.00021352,87.9173,268.0400,103.4512,256.6859,0,U,55800,999,16540,.10619869E-3,.56E-6,0
ONEWEB-0564,2023-029F,2026-07-19T11:36:16.992000,13.20773092,.00016824,87.9173,268.0154,92.5696,267.5630,0,U,55801,999,16541,.67557815E-4,.4E-6,0
ONEWEB-0638,2023-029G,2026-07-19T06:52:26.567904,13.14504799,.00014892,87.8952,283.3535,106.9416,253.1877,0,U,55802,999,16361,.32242022E-3,.132E-5,0
ONEWEB-0639,2023-029H,2026-07-19T13:22:31.200384,13.19724719,.00027475,87.9185,298.5303,116.1957,243.9459,0,U,55803,999,16317,-.40030766E-3,-.147E-5,0
ONEWEB-0640,2023-029J,2026-07-19T07:06:09.365472,13.14502295,.00016829,87.8953,283.3425,119.3468,240.7830,0,U,55804,999,16363,.7997107E-3,.309E-5,0
ONEWEB-0641,2023-029K,2026-07-19T07:48:12.642912,13.19693967,.00020093,87.9197,298.5684,104.4759,255.6597,0,U,55805,999,16315,.16920239E-1,.6789E-4,0
ONEWEB-0642,2023-029L,2026-07-19T07:41:21.969024,13.19726128,.00027694,87.9186,298.5787,110.3476,249.7955,0,U,55806,999,16314,.39827123E-4,.29E-6,0
ONEWEB-0643,2023-029M,2026-07-19T06:22:46.259616,13.14502296,.00026977,87.8952,283.3354,103.8213,256.3217,0,U,55807,999,16360,-.36635256E-3,-.123E-5,0
ONEWEB-0644,2023-029N,2026-07-19T13:02:04.526016,13.19725996,.00023599,87.9182,298.5352,104.9353,255.2041,0,U,55808,999,16317,.17890757E-3,.85E-6,0
ONEWEB-0645,2023-029P,2026-07-19T06:17:12.591456,13.19726357,.00020819,87.9182,298.5885,112.3289,247.8065,0,U,55809,999,16313,-.43136207E-4,-.4E-7,0
ONEWEB-0646,2023-029Q,2026-07-19T12:09:44.489952,13.19726223,.00022643,87.9183,298.5394,104.4046,255.7338,0,U,55810,999,16315,-.21711782E-3,-.74E-6,0
ONEWEB-0648,2023-029R,2026-07-19T05:37:05.459808,13.14503770,.00025235,87.8967,283.3189,120.1707,239.9673,0,U,55811,999,16360,.57612642E-3,.226E-5,0
ONEWEB-0649,2023-029S,2026-07-19T12:46:07.811904,13.19725323,.00021238,87.9184,298.5325,107.5235,252.6130,0,U,55812,999,16319,-.23915157E-3,-.83E-6,0
ONEWEB-0650,2023-029T,2026-07-19T12:39:18.925632,13.19725060,.00025599,87.9183,298.5360,109.0581,251.0829,0,U,55813,999,16316,-.1663226E-3,-.54E-6,0
ONEWEB-0652,2023-029U,2026-07-19T12:28:07.995072,13.14502953,.00019584,87.8964,283.2686,94.8042,265.3311,0,U,55814,999,16361,.46530957E-3,.185E-5,0
ONEWEB-0653,2023-029V,2026-07-19T12:05:17.500992,13.14502717,.00019491,87.8964,283.2701,99.9208,260.2142,0,U,55815,999,16364,-.10204808E-3,-.25E-6,0
ONEWEB-0654,2023-029W,2026-07-19T11:58:26.297472,13.14502648,.00017709,87.8963,283.2669,92.1390,267.9942,0,U,55816,999,16366,-.33703704E-3,-.112E-5,0
ONEWEB-0656,2023-029X,2026-07-19T11:26:35.199456,13.20769932,.00017747,87.9186,267.9965,87.6352,272.4985,0,U,55817,999,16541,-.19489342E-3,-.66E-6,0
ONEWEB-0657,2023-029Y,2026-07-19T12:32:31.479648,13.19727672,.00020662,87.9183,298.5352,78.1970,281.9395,0,U,55818,999,16317,.14242697E-3,.7E-6,0
ONEWEB-0658,2023-029Z,2026-07-19T06:58:09.134400,13.19726841,.00024031,87.9194,298.5600,105.6663,254.4735,0,U,55819,999,16315,.2809507E-3,.125E-5,0
ONEWEB-0660,2023-029AA,2026-07-19T11:26:28.226976,13.14502635,.00020005,87.8974,283.2670,109.7561,250.3785,0,U,55820,999,16364,-.33283183E-3,-.111E-5,0
ONEWEB-0661,2023-029AB,2026-07-19T12:16:42.990816,13.14503889,.00018438,87.8953,283.3000,107.4538,252.6794,0,U,55821,999,16363,.61053189E-3,.239E-5,0
ONEWEB-0662,2023-029AC,2026-07-19T14:56:34.151136,13.14502360,.00019557,87.8960,283.2836,108.1090,252.0253,0,U,55822,999,16369,.14428731E-3,.66E-6,0
ONEWEB-0663,2023-029AD,2026-07-19T10:22:33.358656,13.20871247,.00022192,87.9187,268.0763,108.9189,251.2185,0,U,55823,999,16540,-.10473176E-3,-.3E-6,0
ONEWEB-0664,2023-029AE,2026-07-19T14:45:23.004576,13.20772419,.00016206,87.9168,268.0172,105.6171,254.5141,0,U,55824,999,16542,.71577291E-4,.42E-6,0
ONEWEB-0665,2023-029AF,2026-07-19T12:12:09.177120,13.14503197,.00020883,87.8953,283.2812,108.7199,251.4158,0,U,55825,999,16365,.16801772E-3,.75E-6,0
ONEWEB-0666,2023-029AG,2026-07-19T05:30:12.593088,13.20770821,.00023943,87.9170,268.0844,81.8656,278.2749,0,U,55826,999,16538,-.31886809E-3,-.117E-5,0
